[{"OBJECT_NAME":"STARLINK-3279","OBJECT_ID":"2021-125AF","EPOCH":"2026-03-09T19:25:37.096896","MEAN_MOTION":15.08834582,"ECCENTRICITY":0.00016071,"INCLINATION":53.2176,"RA_OF_ASC_NODE":248.624,"ARG_OF_PERICENTER":95.7602,"MEAN_ANOMALY":264.3573,"EPHEMERIS_TYPE":0,"CLASSIFICATION_TYPE":"U","NORAD_CAT_ID":50185,"ELEMENT_SET_NO":999,"REV_AT_EPOCH":23662,"BSTAR":3.4081888e-5,"MEAN_MOTION_DOT":2.54e-6,"MEAN_MOTION_DDOT":0},{"OBJECT_NAME":"RAAF M1","OBJECT_ID":"2018-099X","EPOCH":"2026-03-09T15:51:10.230048","MEAN_MOTION":15.07065376,"ECCENTRICITY":0.00134971,"INCLINATION":97.4534,"RA_OF_ASC_NODE":114.8325,"ARG_OF_PERICENTER":21.6261,"MEAN_ANOMALY":338.5534,"EPHEMERIS_TYPE":0,"CLASSIFICATION_TYPE":"U","NORAD_CAT_ID":43779,"ELEMENT_SET_NO":999,"REV_AT_EPOCH":39714,"BSTAR":0.00026511092,"MEAN_MOTION_DOT":3.923e-5,"MEAN_MOTION_DDOT":0}]
